OKEAN-3                 
1 21397U 91039A   25308.49147507  .00004322  00000+0  31251-3 0  9994
2 21397  82.5140  98.0556 0015518  40.3866 319.8508 15.03719246846217
COSMOS 2151             
1 21422U 91042A   25308.45546363  .00002468  00000+0  19873-3 0  9991
2 21422  82.4995 204.3849 0013928 117.7217 242.5421 14.99473877844420
SL-14 R/B               
1 21423U 91042B   25308.15419248  .00000486  00000+0  58780-4 0  9999
2 21423  82.4930 337.9111 0015596 296.0532  63.9076 14.81685802834489
ERS-1                   
1 21574U 91050A   25308.29449344  .00000362  00000+0  13083-3 0  9999
2 21574  98.7929 318.3832 0031415 212.7166 147.2075 14.39318741797697
ARIANE 40 R/B           
1 21610U 91050F   25308.43557830  .00000415  00000+0  13712-3 0  9994
2 21610  98.2223   0.2386 0004406  94.7694 265.4000 14.42762353800934
INTERCOSMOS 25          
1 21819U 91086A   25308.32585345  .00001453  00000+0  28083-3 0  9994
2 21819  82.6096  25.7911 1488755  27.1840 339.9784 12.11562456481503
SL-8 R/B                
1 21876U 92008B   25308.42109814  .00000119  00000+0  10597-3 0  9995
2 21876  82.9295   0.9469 0035956 123.5160 254.9411 13.75947297692192
SL-8 R/B                
1 21938U 92020B   25308.37373502  .00000046  00000+0  32516-4 0  9994
2 21938  82.9299 246.8054 0027697 289.0533 194.0598 13.75520126683908
USA 81                  
1 21949U 92023A   25308.47119662  .00000231  00000+0  78246-4 0  9991
2 21949  85.0116 203.6399 0002785  83.4216 276.7293 14.32305352 76867
COSMOS 2219             
1 22219U 92076A   25308.38394325  .00000333  00000+0  19941-3 0  9990
2 22219  71.0598 280.0083 0017128  25.1946 335.0008 14.14060715700662
SL-16 R/B               
1 22220U 92076B   25308.45155579  .00000287  00000+0  16679-3 0  9999
2 22220  70.9984  92.1812 0014995 283.7408 137.4714 14.16831709704097
COSMOS 2221             
1 22236U 92080A   25308.34901650  .00002502  00000+0  22321-3 0  9991
2 22236  82.5070  39.0570 0013241 251.5273 108.4510 14.95527488762051
