CCSDS_OMM_VERS = 2.0
CREATION_DATE  = 
ORIGINATOR     = 

OBJECT_NAME    = OKEAN-3
OBJECT_ID      = 1991-039A
CENTER_NAME    = EARTH
REF_FRAME      = TEME
TIME_SYSTEM    = UTC
MEAN_ELEMENT_THEORY = SGP/SGP4

EPOCH          = 2025-11-04T11:47:43.446048
MEAN_MOTION    = 15.03719246
ECCENTRICITY   = .0015518
INCLINATION    = 82.5140
RA_OF_ASC_NODE = 98.0556
ARG_OF_PERICENTER = 40.3866
MEAN_ANOMALY   = 319.8508

EPHEMERIS_TYPE = 0
CLASSIFICATION_TYPE = U
NORAD_CAT_ID   = 21397
ELEMENT_SET_NO = 999
REV_AT_EPOCH   = 84621
BSTAR          = .31251E-3
MEAN_MOTION_DOT = .4322E-4
MEAN_MOTION_DDOT = 0

CCSDS_OMM_VERS = 2.0
CREATION_DATE  = 
ORIGINATOR     = 

OBJECT_NAME    = COSMOS 2151
OBJECT_ID      = 1991-042A
CENTER_NAME    = EARTH
REF_FRAME      = TEME
TIME_SYSTEM    = UTC
MEAN_ELEMENT_THEORY = SGP/SGP4

EPOCH          = 2025-11-04T10:55:52.057632
MEAN_MOTION    = 14.99473877
ECCENTRICITY   = .0013928
INCLINATION    = 82.4995
RA_OF_ASC_NODE = 204.3849
ARG_OF_PERICENTER = 117.7217
MEAN_ANOMALY   = 242.5421

EPHEMERIS_TYPE = 0
CLASSIFICATION_TYPE = U
NORAD_CAT_ID   = 21422
ELEMENT_SET_NO = 999
REV_AT_EPOCH   = 84442
BSTAR          = .19873E-3
MEAN_MOTION_DOT = .2468E-4
MEAN_MOTION_DDOT = 0

CCSDS_OMM_VERS = 2.0
CREATION_DATE  = 
ORIGINATOR     = 

OBJECT_NAME    = SL-14 R/B
OBJECT_ID      = 1991-042B
CENTER_NAME    = EARTH
REF_FRAME      = TEME
TIME_SYSTEM    = UTC
MEAN_ELEMENT_THEORY = SGP/SGP4

EPOCH          = 2025-11-04T03:42:02.230272
MEAN_MOTION    = 14.81685802
ECCENTRICITY   = .00155967
INCLINATION    = 82.4930
RA_OF_ASC_NODE = 337.9111
ARG_OF_PERICENTER = 296.0532
MEAN_ANOMALY   = 63.9076

EPHEMERIS_TYPE = 0
CLASSIFICATION_TYPE = U
NORAD_CAT_ID   = 21423
ELEMENT_SET_NO = 999
REV_AT_EPOCH   = 83448
BSTAR          = .58779868E-4
MEAN_MOTION_DOT = .486E-5
MEAN_MOTION_DDOT = 0

CCSDS_OMM_VERS = 2.0
CREATION_DATE  = 
ORIGINATOR     = 

OBJECT_NAME    = ERS-1
OBJECT_ID      = 1991-050A
CENTER_NAME    = EARTH
REF_FRAME      = TEME
TIME_SYSTEM    = UTC
MEAN_ELEMENT_THEORY = SGP/SGP4

EPOCH          = 2025-11-04T07:04:04.233216
MEAN_MOTION    = 14.39318741
ECCENTRICITY   = .0031415
INCLINATION    = 98.7929
RA_OF_ASC_NODE = 318.3832
ARG_OF_PERICENTER = 212.7166
MEAN_ANOMALY   = 147.2075

EPHEMERIS_TYPE = 0
CLASSIFICATION_TYPE = U
NORAD_CAT_ID   = 21574
ELEMENT_SET_NO = 999
REV_AT_EPOCH   = 79769
BSTAR          = .13083E-3
MEAN_MOTION_DOT = .362E-5
MEAN_MOTION_DDOT = 0

CCSDS_OMM_VERS = 2.0
CREATION_DATE  = 
ORIGINATOR     = 

OBJECT_NAME    = ARIANE 40 R/B
OBJECT_ID      = 1991-050F
CENTER_NAME    = EARTH
REF_FRAME      = TEME
TIME_SYSTEM    = UTC
MEAN_ELEMENT_THEORY = SGP/SGP4

EPOCH          = 2025-11-04T10:27:13.965120
MEAN_MOTION    = 14.42762353
ECCENTRICITY   = .0004406
INCLINATION    = 98.2223
RA_OF_ASC_NODE = 0.2386
ARG_OF_PERICENTER = 94.7694
MEAN_ANOMALY   = 265.4000

EPHEMERIS_TYPE = 0
CLASSIFICATION_TYPE = U
NORAD_CAT_ID   = 21610
ELEMENT_SET_NO = 999
REV_AT_EPOCH   = 80093
BSTAR          = .13712E-3
MEAN_MOTION_DOT = .415E-5
MEAN_MOTION_DDOT = 0

CCSDS_OMM_VERS = 2.0
CREATION_DATE  = 
ORIGINATOR     = 

OBJECT_NAME    = INTERCOSMOS 25
OBJECT_ID      = 1991-086A
CENTER_NAME    = EARTH
REF_FRAME      = TEME
TIME_SYSTEM    = UTC
MEAN_ELEMENT_THEORY = SGP/SGP4

EPOCH          = 2025-11-04T07:49:13.738080
MEAN_MOTION    = 12.11562456
ECCENTRICITY   = .1488755
INCLINATION    = 82.6096
RA_OF_ASC_NODE = 25.7911
ARG_OF_PERICENTER = 27.1840
MEAN_ANOMALY   = 339.9784

EPHEMERIS_TYPE = 0
CLASSIFICATION_TYPE = U
NORAD_CAT_ID   = 21819
ELEMENT_SET_NO = 999
REV_AT_EPOCH   = 48150
BSTAR          = .28083E-3
MEAN_MOTION_DOT = .1453E-4
MEAN_MOTION_DDOT = 0

CCSDS_OMM_VERS = 2.0
CREATION_DATE  = 
ORIGINATOR     = 

OBJECT_NAME    = SL-8 R/B
OBJECT_ID      = 1992-008B
CENTER_NAME    = EARTH
REF_FRAME      = TEME
TIME_SYSTEM    = UTC
MEAN_ELEMENT_THEORY = SGP/SGP4

EPOCH          = 2025-11-04T10:06:22.879296
MEAN_MOTION    = 13.75947297
ECCENTRICITY   = .0035956
INCLINATION    = 82.9295
RA_OF_ASC_NODE = 0.9469
ARG_OF_PERICENTER = 123.5160
MEAN_ANOMALY   = 254.9411

EPHEMERIS_TYPE = 0
CLASSIFICATION_TYPE = U
NORAD_CAT_ID   = 21876
ELEMENT_SET_NO = 999
REV_AT_EPOCH   = 69219
BSTAR          = .10597E-3
MEAN_MOTION_DOT = .119E-5
MEAN_MOTION_DDOT = 0

CCSDS_OMM_VERS = 2.0
CREATION_DATE  = 
ORIGINATOR     = 

OBJECT_NAME    = SL-8 R/B
OBJECT_ID      = 1992-020B
CENTER_NAME    = EARTH
REF_FRAME      = TEME
TIME_SYSTEM    = UTC
MEAN_ELEMENT_THEORY = SGP/SGP4

EPOCH          = 2025-11-04T08:58:10.705728
MEAN_MOTION    = 13.75520126
ECCENTRICITY   = .0027697
INCLINATION    = 82.9299
RA_OF_ASC_NODE = 246.8054
ARG_OF_PERICENTER = 289.0533
MEAN_ANOMALY   = 194.0598

EPHEMERIS_TYPE = 0
CLASSIFICATION_TYPE = U
NORAD_CAT_ID   = 21938
ELEMENT_SET_NO = 999
REV_AT_EPOCH   = 68390
BSTAR          = .32516E-4
MEAN_MOTION_DOT = .46E-6
MEAN_MOTION_DDOT = 0

CCSDS_OMM_VERS = 2.0
CREATION_DATE  = 
ORIGINATOR     = 

OBJECT_NAME    = USA 81
OBJECT_ID      = 1992-023A
CENTER_NAME    = EARTH
REF_FRAME      = TEME
TIME_SYSTEM    = UTC
MEAN_ELEMENT_THEORY = SGP/SGP4

EPOCH          = 2025-11-04T11:18:31.387968
MEAN_MOTION    = 14.32305352
ECCENTRICITY   = .0002785
INCLINATION    = 85.0116
RA_OF_ASC_NODE = 203.6399
ARG_OF_PERICENTER = 83.4216
MEAN_ANOMALY   = 276.7293

EPHEMERIS_TYPE = 0
CLASSIFICATION_TYPE = U
NORAD_CAT_ID   = 21949
ELEMENT_SET_NO = 999
REV_AT_EPOCH   = 7686
BSTAR          = .78246E-4
MEAN_MOTION_DOT = .231E-5
MEAN_MOTION_DDOT = 0

CCSDS_OMM_VERS = 2.0
CREATION_DATE  = 
ORIGINATOR     = 

OBJECT_NAME    = COSMOS 2219
OBJECT_ID      = 1992-076A
CENTER_NAME    = EARTH
REF_FRAME      = TEME
TIME_SYSTEM    = UTC
MEAN_ELEMENT_THEORY = SGP/SGP4

EPOCH          = 2025-11-04T09:12:52.696800
MEAN_MOTION    = 14.14060715
ECCENTRICITY   = .0017128
INCLINATION    = 71.0598
RA_OF_ASC_NODE = 280.0083
ARG_OF_PERICENTER = 25.1946
MEAN_ANOMALY   = 335.0008

EPHEMERIS_TYPE = 0
CLASSIFICATION_TYPE = U
NORAD_CAT_ID   = 22219
ELEMENT_SET_NO = 999
REV_AT_EPOCH   = 70066
BSTAR          = .19941E-3
MEAN_MOTION_DOT = .333E-5
MEAN_MOTION_DDOT = 0

CCSDS_OMM_VERS = 2.0
CREATION_DATE  = 
ORIGINATOR     = 

OBJECT_NAME    = SL-16 R/B
OBJECT_ID      = 1992-076B
CENTER_NAME    = EARTH
REF_FRAME      = TEME
TIME_SYSTEM    = UTC
MEAN_ELEMENT_THEORY = SGP/SGP4

EPOCH          = 2025-11-04T10:50:14.420256
MEAN_MOTION    = 14.16831709
ECCENTRICITY   = .0014995
INCLINATION    = 70.9984
RA_OF_ASC_NODE = 92.1812
ARG_OF_PERICENTER = 283.7408
MEAN_ANOMALY   = 137.4714

EPHEMERIS_TYPE = 0
CLASSIFICATION_TYPE = U
NORAD_CAT_ID   = 22220
ELEMENT_SET_NO = 999
REV_AT_EPOCH   = 70409
BSTAR          = .16679E-3
MEAN_MOTION_DOT = .287E-5
MEAN_MOTION_DDOT = 0

CCSDS_OMM_VERS = 2.0
CREATION_DATE  = 
ORIGINATOR     = 

OBJECT_NAME    = COSMOS 2221
OBJECT_ID      = 1992-080A
CENTER_NAME    = EARTH
REF_FRAME      = TEME
TIME_SYSTEM    = UTC
MEAN_ELEMENT_THEORY = SGP/SGP4

EPOCH          = 2025-11-04T08:22:35.025600
MEAN_MOTION    = 14.95527488
ECCENTRICITY   = .0013241
INCLINATION    = 82.5070
RA_OF_ASC_NODE = 39.0570
ARG_OF_PERICENTER = 251.5273
MEAN_ANOMALY   = 108.4510

EPHEMERIS_TYPE = 0
CLASSIFICATION_TYPE = U
NORAD_CAT_ID   = 22236
ELEMENT_SET_NO = 999
REV_AT_EPOCH   = 76205
BSTAR          = .22321E-3
MEAN_MOTION_DOT = .2502E-4
MEAN_MOTION_DDOT = 0

